[{"OBJECT_NAME":"STARLINK-5173","OBJECT_ID":"2022-136J","EPOCH":"2026-03-09T00:42:51.435936","MEAN_MOTION":15.08832788,"ECCENTRICITY":0.00012283,"INCLINATION":53.2188,"RA_OF_ASC_NODE":347.1316,"ARG_OF_PERICENTER":87.0787,"MEAN_ANOMALY":273.0345,"EPHEMERIS_TYPE":0,"CLASSIFICATION_TYPE":"U","NORAD_CAT_ID":54059,"ELEMENT_SET_NO":999,"REV_AT_EPOCH":18674,"BSTAR":-7.706967e-5,"MEAN_MOTION_DOT":-1.514e-5,"MEAN_MOTION_DDOT":0},{"OBJECT_NAME":"OBJECT C","OBJECT_ID":"2025-108C","EPOCH":"2026-03-09T22:37:32.676384","MEAN_MOTION":15.13945167,"ECCENTRICITY":0.00134886,"INCLINATION":97.4753,"RA_OF_ASC_NODE":145.0046,"ARG_OF_PERICENTER":355.6312,"MEAN_ANOMALY":4.48,"EPHEMERIS_TYPE":0,"CLASSIFICATION_TYPE":"U","NORAD_CAT_ID":64089,"ELEMENT_SET_NO":999,"REV_AT_EPOCH":4425,"BSTAR":0.00040295487,"MEAN_MOTION_DOT":7.256e-5,"MEAN_MOTION_DDOT":0}]
